STARLINK-30969          
1 58438U 23183B   26080.96949378  .00000984  00000+0  46353-4 0  9991
2 58438  43.0046 332.1667 0001581 257.8651 102.2023 15.26755014128618
STARLINK-30951          
1 58439U 23183C   26081.96603928 -.00002904  00000+0 -98618-4 0  9998
2 58439  42.9992 326.7369 0001695 289.4523  70.6145 15.26733270128769
STARLINK-30950          
1 58440U 23183D   26081.83563413 -.00000898  00000+0 -23127-4 0  9993
2 58440  43.0026 130.8876 0001279 274.9216  85.1490 15.27577089131048
STARLINK-30942          
1 58441U 23183E   26081.72767822 -.00008208  00000+0 -29682-3 0  9996
2 58441  43.0098 327.5300 0003127 266.7402  93.3092 15.26713690128735
STARLINK-30959          
1 58442U 23183F   26081.72793942 -.00000861  00000+0 -22444-4 0  9996
2 58442  43.0011 327.5324 0000973 277.5333  82.5407 15.26732640128732
STARLINK-30971          
1 58443U 23183G   26081.96791812 -.00002329  00000+0 -77182-4 0  9997
2 58443  43.0005 326.7428 0000943 271.4984  88.5759 15.26731591128767
STARLINK-30963          
1 58444U 23183H   26081.94064611 -.00002713  00000+0 -89132-4 0  9991
2 58444  43.0040 326.5491 0002251 280.1141  79.9457 15.27558566128760
STARLINK-30961          
1 58445U 23183J   26081.93877016 -.00001000  00000+0 -27601-4 0  9993
2 58445  43.0030 326.5282 0001347 246.8464 113.2246 15.26742741128767
STARLINK-30975          
1 58446U 23183K   26081.94189241 -.00004604  00000+0 -16210-3 0  9997
2 58446  43.0006 326.5490 0001193 239.3515 120.7219 15.26729451128783
STARLINK-30976          
1 58447U 23183L   26081.95103475 -.00000254  00000+0  20185-6 0  9999
2 58447  43.0021 326.6542 0001213 264.3357  95.7356 15.26728386128762
STARLINK-30926          
1 58448U 23183M   26081.97565437  .00025882  00000+0  97038-3 0  9993
2 58448  43.0001 325.9043 0000737 276.1863  83.8904 15.26766532128775
STARLINK-30943          
1 58449U 23183N   26082.16668981  .00024265  00000+0  88775-3 0  9996
2 58449  43.0006 299.6373 0001319 274.1557  77.8448 15.27604474  5721
STARLINK-30946          
1 58450U 23183P   26081.95733554  .00004062  00000+0  15709-3 0  9993
2 58450  43.0019 326.6738 0002020 261.8625  98.1997 15.27574515128769
STARLINK-30944          
1 58451U 23183Q   26081.94404306 -.00031627  00000+0 -11776-2 0  9991
2 58451  43.0031 326.5754 0001804 266.0803  93.9842 15.26650903128739
STARLINK-30928          
1 58452U 23183R   26081.94646622 -.00000965  00000+0 -26279-4 0  9998
2 58452  43.0049 326.5930 0001484 288.7195  71.3495 15.26734484128757
STARLINK-30957          
1 58453U 23183S   26081.67065087 -.00002617  00000+0 -87944-4 0  9991
2 58453  43.0041 327.9623 0001247 257.2107 102.8605 15.26724606128720
STARLINK-30966          
1 58454U 23183T   26081.95091897 -.00003795  00000+0 -12847-3 0  9998
2 58454  43.0072 326.6247 0003526 280.6085  79.4369 15.27561687128769
STARLINK-30935          
1 58455U 23183U   26082.09568014 -.00000206  00000+0  19942-5 0  9993
2 58455  42.9998 325.9806 0001368 276.4393  83.6302 15.26738221128780
STARLINK-30960          
1 58456U 23183V   26082.16668981  .00894945  33843-3  25811-2 0  9990
2 58456  42.9870 225.0068 0036895 336.6800 256.5070 15.91026253  5925
STARLINK-30958          
1 58457U 23183W   26081.73678324 -.00004984  00000+0 -17186-3 0  9995
2 58457  43.0023 327.5971 0001265 243.9098 116.1623 15.27551513128732
STARLINK-30962          
1 58458U 23183X   26081.97656102 -.00000934  00000+0 -25128-4 0  9999
2 58458  42.9971 325.9533 0001499 272.0217  88.0462 15.26731806128770
STARLINK-30977          
1 58459U 23183Y   26081.72047139 -.00001849  00000+0 -59275-4 0  9993
2 58459  42.9990 328.3179 0001090 271.1905  88.8822 15.26727285128725
GNOMES-4                
1 58462U 23185A   26082.26469924  .00004649  00000+0  37499-3 0  9991
2 58462  97.5079 142.5174 0010427 233.4944 126.5321 15.00306461126400
KORSAT-7                
1 58463U 23185B   26082.25623405  .00002907  00000+0  23163-3 0  9995
2 58463  97.6239 148.1086 0021212 260.7125  99.1700 15.00965258126391
KOYOH                   
1 58464U 23185C   26082.25585450  .00008044  00000+0  40826-3 0  9996
2 58464  97.5371 154.9059 0005795 236.3716 123.6965 15.17168559127097
BANE                    
1 58465U 23185D   26082.26556369  .00120624  00000+0  93808-3 0  9992
2 58465  97.3423 165.4543 0004557 147.4946 212.6599 15.71377466129229
UHETSAT                 
1 58466U 23185E   26082.28686265  .00008993  00000+0  31161-3 0  9992
2 58466  97.3556 150.5704 0011705 253.6815 106.3138 15.30000308128151
LILIUM-1                
1 58467U 23185F   26082.26868339  .00158536  00000+0  12703-2 0  9994
2 58467  97.3285 161.6768 0004830 152.9314 207.2201 15.70544338129007
SPIRIT                  
1 58468U 23185G   26082.29405843  .00083364  00000+0  85401-3 0  9997
2 58468  97.3357 162.7612 0005537 144.0249 216.1384 15.64696395129074
ION SCV-015             
1 58469U 23185H   26082.26894869  .00009262  00000+0  30326-3 0  9996
2 58469  97.5757 168.9847 0010341  51.1421 309.0741 15.31852271127920
STARLINK-30947          
1 58473U 23186A   26082.14277915  .00008414  00000+0  32215-3 0  9993
2 58473  43.0027 351.0867 0001064 266.5574  93.5155 15.26826073127919
STARLINK-30941          
1 58475U 23186C   26082.02261558 -.00001758  00000+0 -55830-4 0  9993
2 58475  43.0075 351.9042 0002974 268.1061  91.9450 15.26735414127893
STARLINK-30980          
1 58476U 23186D   26082.02861418  .00066997  00000+0  24273-2 0  9994
2 58476  43.0000 351.9425 0002945 280.4072  79.6448 15.27508101127896
STARLINK-30965          
1 58477U 23186E   26081.73636104 -.00003040  00000+0 -10363-3 0  9992
2 58477  42.9976 338.4808 0002075 264.6372  95.4242 15.26750447128028
STARLINK-30990          
1 58478U 23186F   26082.14008422 -.00001499  00000+0 -46194-4 0  9993
2 58478  43.0033 351.0621 0001408 262.1375  97.9317 15.26744523127953
STARLINK-30984          
1 58480U 23186H   26081.91870316  .00000332  00000+0  21614-4 0  9992
2 58480  43.0048 348.5726 0001508 263.0231  97.0449 15.27571763127920
STARLINK-30956          
1 58481U 23186J   26081.95678941 -.00001797  00000+0 -57345-4 0  9995
2 58481  43.0016 326.1384 0001193 268.8959  91.1756 15.26727374128183
STARLINK-30997          
1 58482U 23186K   26082.16668981  .00075906  00000+0  27427-2 0  9990
2 58482  43.0020 347.4859 0001800 256.9687 246.9827 15.27542623  5820
STARLINK-30994          
1 58483U 23186L   26081.76354271  .00002926  00000+0  11581-3 0  9997
2 58483  43.0027 186.3334 0001687 272.8754  87.1904 15.27579488129806
STARLINK-30991          
1 58484U 23186M   26082.11356568 -.00001055  00000+0 -28827-4 0  9995
2 58484  43.0027 347.4523 0001083 281.2845  78.7885 15.27581147127933
STARLINK-30979          
1 58485U 23186N   26081.76495578 -.00003707  00000+0 -12535-3 0  9995
2 58485  43.0000 349.9920 0001461 281.6419  78.4269 15.27553646127884
STARLINK-31005          
1 58486U 23186P   26082.02005981 -.00000748  00000+0 -17678-4 0  9997
2 58486  43.0015 348.4708 0001330 272.1752  87.8948 15.27573742127921
STARLINK-30987          
1 58487U 23186Q   26080.78155116  .00003117  00000+0  12266-3 0  9993
2 58487  43.0015 355.5106 0001007 276.0730  84.0007 15.27599206127730
STARLINK-31000          
1 58488U 23186R   26081.94697304 -.00001238  00000+0 -35458-4 0  9996
2 58488  43.0040 348.7822 0001444 249.1953 110.8744 15.27582235127911
STARLINK-30993          
1 58489U 23186S   26082.14697967 -.00004310  00000+0 -14728-3 0  9995
2 58489  43.0021 347.7003 0001226 208.7951 151.2833 15.27562519127942
STARLINK-30978          
1 58490U 23186T   26082.00592330  .00005467  00000+0  20806-3 0  9996
2 58490  43.0045 348.3696 0002198 290.7666  69.2950 15.27577476127922
STARLINK-30953          
1 58491U 23186U   26081.65880703 -.00003023  00000+0 -10044-3 0  9992
2 58491  43.0013 194.2570 0001280 260.6292  99.4415 15.27555531129874
STARLINK-30986          
1 58492U 23186V   26082.00208064  .00001669  00000+0  70176-4 0  9992
2 58492  43.0042 348.3406 0001235 258.4681 101.6032 15.27566572127926
STARLINK-30985          
1 58493U 23186W   26082.12513889  .00002869  00000+0  11371-3 0  9994
2 58493  43.0017 347.5462 0001644 258.7390 101.3277 15.27588354127948
STARLINK-30981          
1 58494U 23186X   26082.12129065  .00001880  00000+0  77885-4 0  9999
2 58494  43.0015 347.5123 0001007 262.8011  97.2726 15.27558629127944
STARLINK-31002          
1 58495U 23186Y   26082.16108866  .00008434  00000+0  31533-3 0  9991
2 58495  43.0010 347.7957 0001529 253.1091 106.9593 15.27615366128119
XINGCHI-1 02A           
1 58496U 23187A   26082.24450514  .00002596  00000+0  31790-3 0  9990
2 58496  97.9273 165.6475 0012830  69.0992 291.1595 14.83998039124377
MISRSAT-2               
1 58497U 23187B   26082.24179322  .00002100  00000+0  26463-3 0  9998
2 58497  97.9283 164.8496 0012254  70.5536 289.7000 14.83016922124303
XINGCHI-1 02B           
1 58498U 23187C   26082.27863714  .00002150  00000+0  25492-3 0  9993
2 58498  97.9300 166.6753 0011867  65.9913 294.2542 14.85537266124422
DOORY-SAT               
1 58500U 23188A   26082.27299744  .00001785  00000+0  25764-3 0  9999
2 58500  46.9830 355.3771 0008720 344.5720  15.4908 14.80392437124266
2023-189A               
1 58502U 23189A   26082.27812532  .00005866  00000+0  18895-3 0  9999
2 58502  97.4445  99.9980 0010622 196.4354 163.6545 15.32541166128052
2023-189B               
1 58503U 23189B   26081.87582668  .00152280  00000+0  98710-3 0  9996
2 58503  97.4102 115.4412 0005852 140.4966 219.6726 15.75556392129096
CHUANGXIN 19 (CX-19)    
1 58505U 23190A   26082.27730062  .00000094  00000+0  14552-3 0  9995
2 58505  86.5103   2.2947 0001765  65.4163 294.7163 13.39543934113197
STARLINK-31026          
1 58508U 23191A   26079.29107093  .00113882  00000+0  81014-2 0  9995
2 58508  43.0014  49.4372 0001904 209.9437 150.1297 15.03490341127024
